[{"OBJECT_NAME":"STARLINK-34970","OBJECT_ID":"2025-194S","EPOCH":"2026-03-09T13:24:00.112032","MEAN_MOTION":15.05626272,"ECCENTRICITY":0.00017003,"INCLINATION":97.6018,"RA_OF_ASC_NODE":284.1979,"ARG_OF_PERICENTER":72.0647,"MEAN_ANOMALY":288.0765,"EPHEMERIS_TYPE":0,"CLASSIFICATION_TYPE":"U","NORAD_CAT_ID":65450,"ELEMENT_SET_NO":999,"REV_AT_EPOCH":2962,"BSTAR":-0.00012112828,"MEAN_MOTION_DOT":-1.807e-5,"MEAN_MOTION_DDOT":0},{"OBJECT_NAME":"OBJECT D","OBJECT_ID":"2018-099D","EPOCH":"2026-03-09T21:55:11.400096","MEAN_MOTION":15.0608919,"ECCENTRICITY":0.00104801,"INCLINATION":97.4323,"RA_OF_ASC_NODE":113.3477,"ARG_OF_PERICENTER":333.2621,"MEAN_ANOMALY":26.8065,"EPHEMERIS_TYPE":0,"CLASSIFICATION_TYPE":"U","NORAD_CAT_ID":43761,"ELEMENT_SET_NO":999,"REV_AT_EPOCH":39716,"BSTAR":0.0002280609,"MEAN_MOTION_DOT":3.276e-5,"MEAN_MOTION_DDOT":0}]
